GLOBALSTAR M001         
1 25162U 98008A   25116.85547560 -.00000072  00000+0  18900-3 0  9996
2 25162  52.0006 122.6281 0001492 141.7579 283.2540 12.38213239237463
GLOBALSTAR M004         
1 25163U 98008B   25116.24685925 -.00000070  00000+0  18922-3 0  9990
2 25163  51.9993 212.6089 0003496 169.7097 214.3482 12.63394435255224
GLOBALSTAR M002         
1 25164U 98008C   25116.10058323 -.00000067  00000+0  17946-3 0  9993
2 25164  52.0053  10.8014 0002066  57.6024 302.4995 11.61509437178080
GLOBALSTAR M003         
1 25165U 98008D   25116.49030061 -.00000073  00000+0  17129-3 0  9995
2 25165  52.0012 311.7011 0007993 184.1077 210.4706 12.12076848227045
GLOBALSTAR M014         
1 25306U 98023A   25116.48256780 -.00000066  00000+0  20690-3 0  9995
2 25306  51.9843 294.1573 0000355 217.1447 156.9504 11.65479888185133
GLOBALSTAR M006         
1 25307U 98023B   25116.86943369 -.00000051  00000+0  50437-3 0  9990
2 25307  51.9974 343.7335 0003592  23.5652  61.4427 11.58174544210999
GLOBALSTAR M015         
1 25308U 98023C   25116.30824078 -.00000080  00000+0 -14708-3 0  9999
2 25308  51.9812  81.2201 0012736 344.0218 188.1523 11.48858759188495
GLOBALSTAR M008         
1 25309U 98023D   25115.90466549 -.00000039  00000+0  44648-3 0  9999
2 25309  51.9993 349.6358 0003345  69.4015 304.4183 12.36067783231692
